[
    {
        "Altitude(m)": 717643.1704878488,
        "Argument of Periapsis(deg)": 0.0,
        "Eccentricity": 0.0,
        "Inclination(deg)": 45.0,
        "Latitude(deg)": -44.57591060740924,
        "Longitude(deg)": 101.50221342161879,
        "Mean Anomaly(deg)": -81.8182,
        "RAAN(deg)": 280.0,
        "Satellite Name": "Constellation 1 1249",
        "Satellite Number": 1249,
        "Semi-Major Axis(m)": 7083131.272910544,
        "Time(s)": 0
    },
    {
        "Altitude(m)": 717639.6340702606,
        "Argument of Periapsis(deg)": 5.994800624540561e-05,
        "Eccentricity": 0.0,
        "Inclination(deg)": 45.0,
        "Latitude(deg)": -44.56735045106104,
        "Longitude(deg)": 101.58203634887492,
        "Mean Anomaly(deg)": -81.75749885975004,
        "RAAN(deg)": 279.9999434108344,
        "Satellite Name": "Constellation 1 1249",
        "Satellite Number": 1249,
        "Semi-Major Axis(m)": 7083131.272910544,
        "Time(s)": 1
    },
    {
        "Altitude(m)": 717636.072138875,
        "Argument of Periapsis(deg)": 0.00011989601249081122,
        "Eccentricity": 0.0,
        "Inclination(deg)": 45.0,
        "Latitude(deg)": -44.558728642629355,
        "Longitude(deg)": 101.66183462694103,
        "Mean Anomaly(deg)": -81.69679771950031,
        "RAAN(deg)": 279.99988682166884,
        "Satellite Name": "Constellation 1 1249",
        "Satellite Number": 1249,
        "Semi-Major Axis(m)": 7083131.272910544,
        "Time(s)": 2
    },
    {
        "Altitude(m)": 717632.4847068188,
        "Argument of Periapsis(deg)": 0.00017984401873621686,
        "Eccentricity": 0.0,
        "Inclination(deg)": 45.0,
        "Latitude(deg)": -44.55004521840257,
        "Longitude(deg)": 101.74160809380616,
        "Mean Anomaly(deg)": -81.63609657925029,
        "RAAN(deg)": 279.99983023250326,
        "Satellite Name": "Constellation 1 1249",
        "Satellite Number": 1249,
        "Semi-Major Axis(m)": 7083131.272910544,
        "Time(s)": 3
    },
    {
        "Altitude(m)": 717628.8717873013,
        "Argument of Periapsis(deg)": 0.00023979202498162244,
        "Eccentricity": 0.0,
        "Inclination(deg)": 45.0,
        "Latitude(deg)": -44.54130021490134,
        "Longitude(deg)": 101.82135658786976,
        "Mean Anomaly(deg)": -81.57539543900036,
        "RAAN(deg)": 279.99977364333773,
        "Satellite Name": "Constellation 1 1249",
        "Satellite Number": 1249,
        "Semi-Major Axis(m)": 7083131.272910544,
        "Time(s)": 4
    },
    {
        "Altitude(m)": 717625.2333936427,
        "Argument of Periapsis(deg)": 0.00029974003122702807,
        "Eccentricity": 0.0,
        "Inclination(deg)": 45.0,
        "Latitude(deg)": -44.53249366887764,
        "Longitude(deg)": 101.90107994794458,
        "Mean Anomaly(deg)": -81.5146942987505,
        "RAAN(deg)": 279.99971705417215,
        "Satellite Name": "Constellation 1 1249",
        "Satellite Number": 1249,
        "Semi-Major Axis(m)": 7083131.272910544,
        "Time(s)": 5
    },
    {
        "Altitude(m)": 717621.5695392373,
        "Argument of Periapsis(deg)": 0.00035968803747243373,
        "Eccentricity": 0.0,
        "Inclination(deg)": 45.0,
        "Latitude(deg)": -44.52362561731417,
        "Longitude(deg)": 101.98077801325935,
        "Mean Anomaly(deg)": -81.45399315850067,
        "RAAN(deg)": 279.99966046500657,
        "Satellite Name": "Constellation 1 1249",
        "Satellite Number": 1249,
        "Semi-Major Axis(m)": 7083131.272910544,
        "Time(s)": 6
    },
    {
        "Altitude(m)": 717617.8802375916,
        "Argument of Periapsis(deg)": 0.00041963604371783933,
        "Eccentricity": 0.0,
        "Inclination(deg)": 45.0,
        "Latitude(deg)": -44.51469609742358,
        "Longitude(deg)": 102.06045045536347,
        "Mean Anomaly(deg)": -81.3932920182507,
        "RAAN(deg)": 279.999603875841,
        "Satellite Name": "Constellation 1 1249",
        "Satellite Number": 1249,
        "Semi-Major Axis(m)": 7083131.272910544,
        "Time(s)": 7
    },
    {
        "Altitude(m)": 717614.1655022863,
        "Argument of Periapsis(deg)": 0.0004795840499632449,
        "Eccentricity": 0.0,
        "Inclination(deg)": 45.0,
        "Latitude(deg)": -44.50570514664782,
        "Longitude(deg)": 102.14009745051624,
        "Mean Anomaly(deg)": -81.33259087800081,
        "RAAN(deg)": 279.9995472866754,
        "Satellite Name": "Constellation 1 1249",
        "Satellite Number": 1249,
        "Semi-Major Axis(m)": 7083131.272910544,
        "Time(s)": 8
    },
    {
        "Altitude(m)": 717610.4253470156,
        "Argument of Periapsis(deg)": 0.0005395320562086505,
        "Eccentricity": 0.0,
        "Inclination(deg)": 45.0,
        "Latitude(deg)": -44.49665280265744,
        "Longitude(deg)": 102.21971867110891,
        "Mean Anomaly(deg)": -81.27188973775095,
        "RAAN(deg)": 279.9994906975099,
        "Satellite Name": "Constellation 1 1249",
        "Satellite Number": 1249,
        "Semi-Major Axis(m)": 7083131.272910544,
        "Time(s)": 9
    },
    {
        "Altitude(m)": 717606.6597855539,
        "Argument of Periapsis(deg)": 0.0005994800624540561,
        "Eccentricity": 0.0,
        "Inclination(deg)": 45.0,
        "Latitude(deg)": -44.487539103350585,
        "Longitude(deg)": 102.29931395805366,
        "Mean Anomaly(deg)": -81.21118859750099,
        "RAAN(deg)": 279.99943410834425,
        "Satellite Name": "Constellation 1 1249",
        "Satellite Number": 1249,
        "Semi-Major Axis(m)": 7083131.272910544,
        "Time(s)": 10
    },
    {
        "Altitude(m)": 717602.8688317732,
        "Argument of Periapsis(deg)": 0.0006594280686994618,
        "Eccentricity": 0.0,
        "Inclination(deg)": 45.0,
        "Latitude(deg)": -44.478364086852736,
        "Longitude(deg)": 102.37888315268857,
        "Mean Anomaly(deg)": -81.15048745725105,
        "RAAN(deg)": 279.9993775191787,
        "Satellite Name": "Constellation 1 1249",
        "Satellite Number": 1249,
        "Semi-Major Axis(m)": 7083131.272910544,
        "Time(s)": 11
    },
    {
        "Altitude(m)": 717599.0524996405,
        "Argument of Periapsis(deg)": 0.0007193760749448675,
        "Eccentricity": 0.0,
        "Inclination(deg)": 45.0,
        "Latitude(deg)": -44.46912779151562,
        "Longitude(deg)": 102.45842609678012,
        "Mean Anomaly(deg)": -81.08978631700118,
        "RAAN(deg)": 279.99932093001314,
        "Satellite Name": "Constellation 1 1249",
        "Satellite Number": 1249,
        "Semi-Major Axis(m)": 7083131.272910544,
        "Time(s)": 12
    },
    {
        "Altitude(m)": 717595.2108032103,
        "Argument of Periapsis(deg)": 0.000779324081190273,
        "Eccentricity": 0.0,
        "Inclination(deg)": 45.0,
        "Latitude(deg)": -44.45983025591653,
        "Longitude(deg)": 102.53794263252531,
        "Mean Anomaly(deg)": -81.02908517675135,
        "RAAN(deg)": 279.9992643408476,
        "Satellite Name": "Constellation 1 1249",
        "Satellite Number": 1249,
        "Semi-Major Axis(m)": 7083131.272910544,
        "Time(s)": 13
    },
    {
        "Altitude(m)": 717591.3437566368,
        "Argument of Periapsis(deg)": 0.0008392720874356787,
        "Eccentricity": 0.0,
        "Inclination(deg)": 45.0,
        "Latitude(deg)": -44.4504715188577,
        "Longitude(deg)": 102.61743260255358,
        "Mean Anomaly(deg)": -80.96838403650145,
        "RAAN(deg)": 279.99920775168204,
        "Satellite Name": "Constellation 1 1249",
        "Satellite Number": 1249,
        "Semi-Major Axis(m)": 7083131.272910544,
        "Time(s)": 14
    },
    {
        "Altitude(m)": 717587.4513741719,
        "Argument of Periapsis(deg)": 0.0008992200936810842,
        "Eccentricity": 0.0,
        "Inclination(deg)": 45.0,
        "Latitude(deg)": -44.44105161936547,
        "Longitude(deg)": 102.69689568183217,
        "Mean Anomaly(deg)": -80.90768289625152,
        "RAAN(deg)": 279.9991511625164,
        "Satellite Name": "Constellation 1 1249",
        "Satellite Number": 1249,
        "Semi-Major Axis(m)": 7083131.272910544,
        "Time(s)": 15
    },
    {
        "Altitude(m)": 717583.5336701421,
        "Argument of Periapsis(deg)": 0.0009591680999264898,
        "Eccentricity": 0.0,
        "Inclination(deg)": 45.0,
        "Latitude(deg)": -44.43157059668962,
        "Longitude(deg)": 102.77633205005468,
        "Mean Anomaly(deg)": -80.84698175600165,
        "RAAN(deg)": 279.9990945733509,
        "Satellite Name": "Constellation 1 1249",
        "Satellite Number": 1249,
        "Semi-Major Axis(m)": 7083131.272910544,
        "Time(s)": 16
    },
    {
        "Altitude(m)": 717579.5906589815,
        "Argument of Periapsis(deg)": 0.0010191161061718953,
        "Eccentricity": 0.0,
        "Inclination(deg)": 45.0,
        "Latitude(deg)": -44.422028490302544,
        "Longitude(deg)": 102.8557413830635,
        "Mean Anomaly(deg)": -80.7862806157517,
        "RAAN(deg)": 279.9990379841853,
        "Satellite Name": "Constellation 1 1249",
        "Satellite Number": 1249,
        "Semi-Major Axis(m)": 7083131.272910544,
        "Time(s)": 17
    },
    {
        "Altitude(m)": 717575.6223552228,
        "Argument of Periapsis(deg)": 0.001079064112417301,
        "Eccentricity": 0.0,
        "Inclination(deg)": 45.0,
        "Latitude(deg)": -44.41242533989851,
        "Longitude(deg)": 102.93512352523786,
        "Mean Anomaly(deg)": -80.72557947550185,
        "RAAN(deg)": 279.99898139501977,
        "Satellite Name": "Constellation 1 1249",
        "Satellite Number": 1249,
        "Semi-Major Axis(m)": 7083131.272910544,
        "Time(s)": 18
    }
]